NORAD_CAT_ID,OBJECT_NAME,OBJECT_TYPE,EPOCH,MEAN_MOTION,ECCENTRICITY,INCLINATION,RA_OF_ASC_NODE,ARG_OF_PERICENTER,MEAN_ANOMALY,BSTAR,MEAN_MOTION_DOT,MEAN_MOTION_DDOT,TLE_LINE0,TLE_LINE1,TLE_LINE2,SEMIMAJOR_AXIS,PERIOD,APOGEE,PERIGEE,DECAYED
53727.0,STARLINK-4701,PAYLOAD,2022-12-01 22:00:00,15.08859998,0.0001959,53.2152,213.1575,44.6574,347.3823,-0.0025671999999999,-0.00040937,0.0,0 STARLINK-4701,1 53727U 22107AD  22335.91667824 -.00040937  00000-0 -25672-2 0  9993,2 53727  53.2152 213.1575 0001959  44.6574 347.3823 15.08859998 13738,6917.819,95.436,541.039,538.3290000000002,0.0
53727.0,STARLINK-4701,PAYLOAD,2022-12-02 14:00:01,15.08810713,0.0001805,53.2149,210.1631,47.7963,7.4353,0.0030144,0.00047975,0.0,0 STARLINK-4701,1 53727U 22107AD  22336.58334491  .00047975  00000-0  30144-2 0  9995,2 53727  53.2149 210.1631 0001805  47.7963   7.4353 15.08810713 13835,6917.97,95.439,541.0840000000002,538.586,0.0
53727.0,STARLINK-4701,PAYLOAD,2022-12-02 22:00:00,15.08840371,0.0002,53.215,208.6684,44.5532,22.2571,-0.0009867,-0.00015958,0.0,0 STARLINK-4701,1 53727U 22107AD  22336.91667824 -.00015958  00000-0 -98670-3 0  9998,2 53727  53.2150 208.6684 0002000  44.5532  22.2571 15.08840371  1301,6917.879,95.438,541.128,538.361,0.0
53727.0,STARLINK-4701,PAYLOAD,2022-12-03 08:00:01,15.08850262,0.00019,53.215,206.7971,43.3035,127.9935,-0.0037562,-0.00059592,0.0,0 STARLINK-4701,1 53727U 22107AD  22337.33334491 -.00059592  00000-0 -37562-2 0  9990,2 53727  53.2150 206.7971 0001900  43.3035 127.9935 15.08850262 13942,6917.849,95.437,541.028,538.4,0.0
53727.0,STARLINK-4701,PAYLOAD,2022-12-03 14:00:01,15.08803213,0.0001829,53.215,205.6739,46.7293,43.2624,0.0026267,0.00041722,0.0,0 STARLINK-4701,1 53727U 22107AD  22337.58334491  .00041722  00000-0  26267-2 0  9991,2 53727  53.2150 205.6739 0001829  46.7293  43.2624 15.08803213  1301,6917.993,95.44,541.123,538.5930000000002,0.0
53727.0,STARLINK-4701,PAYLOAD,2022-12-03 22:00:00,15.08828095,0.0002039,53.215,204.1794,43.6473,57.9128,-0.00063492,-0.00010376,0.0,0 STARLINK-4701,1 53727U 22107AD  22337.91667824 -.00010376  00000-0 -63492-3 0  9992,2 53727  53.2150 204.1794 0002039  43.6473  57.9128 15.08828095 14036,6917.917,95.438,541.192,538.371,0.0
53727.0,STARLINK-4701,PAYLOAD,2022-12-04 14:00:01,15.08825991,0.0001949,53.2152,201.1849,48.1707,76.5554,0.0022579,0.00035816,0.0,0 STARLINK-4701,1 53727U 22107AD  22338.58334491  .00035816  00000-0  22579-2 0  9991,2 53727  53.2152 201.1849 0001949  48.1707  76.5554 15.08825991  1303,6917.9230000000025,95.438,541.137,538.44,0.0
53727.0,STARLINK-4701,PAYLOAD,2022-12-04 22:00:00,15.08845091,0.0002151,53.2151,199.6903,44.7006,91.6202,-0.00016669,-2.941e-05,0.0,0 STARLINK-4701,1 53727U 22107AD  22338.91667824 -.00002941  00000-0 -16669-3 0  9996,2 53727  53.2151 199.6903 0002151  44.7006  91.6202 15.08845091  1305,6917.865,95.437,541.2180000000002,538.242,0.0
53727.0,STARLINK-4701,PAYLOAD,2022-12-05 06:00:00,15.08871208,0.0002115,53.2151,198.1933,43.8955,104.0228,-0.00178,-0.0002853,0.0,0 STARLINK-4701,1 53727U 22107AD  22339.25001157 -.00028530  00000-0 -17800-2 0  9994,2 53727  53.2151 198.1933 0002115  43.8955 104.0228 15.08871208 14237,6917.785,95.436,541.113,538.187,0.0
53727.0,STARLINK-4701,PAYLOAD,2022-12-05 14:00:01,15.0884816,0.0001984,53.2154,196.6956,48.6791,110.9223,-0.00022638,-3.89e-05,0.0,0 STARLINK-4701,1 53727U 22107AD  22339.58335648 -.00003890  00000-0 -22638-3 0  9993,2 53727  53.2154 196.6956 0001984  48.6791 110.9223 15.08848160  1308,6917.855,95.437,541.0930000000002,538.3480000000002,0.0
53727.0,STARLINK-4701,PAYLOAD,2022-12-05 21:14:41,15.08837077,0.0001995,53.2159,195.3416,45.2463,314.8691,7.153300000000001e-05,8.5e-06,0.0,0 STARLINK-4701,1 53727U 22107AD  22339.88520794  .00000850  00000-0  71533-4 0  9994,2 53727  53.2159 195.3416 0001995  45.2463 314.8691 15.08837077 14933,6917.889,95.438,541.134,538.374,0.0
53727.0,STARLINK-4701,PAYLOAD,2022-12-06 00:25:28,15.08835777,0.0001999,53.2164,194.7462,43.2949,316.82,4.0369e-05,3.54e-06,0.0,0 STARLINK-4701,1 53727U 22107AD  22340.01768996  .00000354  00000-0  40369-4 0  9991,2 53727  53.2164 194.7462 0001999  43.2949 316.8200 15.08835777 14353,6917.893,95.438,541.141,538.375,0.0
53727.0,STARLINK-4701,PAYLOAD,2022-12-06 14:43:56,15.08839486,0.0002024,53.2165,192.0696,44.2062,315.9092,-2.503800000000001e-05,-6.87e-06,0.0,0 STARLINK-4701,1 53727U 22107AD  22340.61385109 -.00000687  00000-0 -25038-4 0  9995,2 53727  53.2165 192.0696 0002024  44.2062 315.9092 15.08839486 15048,6917.882,95.438,541.1469999999998,538.347,0.0
53727.0,STARLINK-4701,PAYLOAD,2022-12-07 00:16:16,15.08831238,0.0002037,53.2165,190.2855,43.7424,316.3729,-8.8728e-05,-1.7e-05,0.0,0 STARLINK-4701,1 53727U 22107AD  22341.01129917 -.00001700  00000-0 -88728-4 0  9995,2 53727  53.2165 190.2855 0002037  43.7424 316.3729 15.08831238 14504,6917.906999999997,95.438,541.181,538.363,0.0
53727.0,STARLINK-4701,PAYLOAD,2022-12-07 20:56:16,15.08835903,0.0002146,53.2164,186.42,49.3622,310.7556,1.1621e-05,-1.03e-06,0.0,0 STARLINK-4701,1 53727U 22107AD  22341.87241364 -.00000103  00000-0  11621-4 0  9993,2 53727  53.2164 186.4200 0002146  49.3622 310.7556 15.08835903 14630,6917.893,95.438,541.242,538.273,0.0
53727.0,STARLINK-4701,PAYLOAD,2022-12-07 22:31:39,15.08855334,0.0002022,53.2164,186.1227,42.1577,317.957,-0.00021004,-3.631e-05,0.0,0 STARLINK-4701,1 53727U 22107AD  22341.93865012 -.00003631  00000-0 -21004-3 0  9997,2 53727  53.2164 186.1227 0002022  42.1577 317.9570 15.08855334 14645,6917.834,95.437,541.097,538.3,0.0
53727.0,STARLINK-4701,PAYLOAD,2022-12-08 06:28:35,15.08828755,0.0001963,53.2164,184.636,47.3575,312.7582,0.00020047,2.903e-05,0.0,0 STARLINK-4701,1 53727U 22107AD  22342.26985267  .00002903  00000-0  20047-3 0  9994,2 53727  53.2164 184.6360 0001963  47.3575 312.7582 15.08828755 15299,6917.915,95.438,541.138,538.422,0.0
53727.0,STARLINK-4701,PAYLOAD,2022-12-09 12:40:53,15.08834339,0.0002144,53.2166,178.9896,317.5307,42.5519,0.0005763999999999,8.896e-05,0.0,0 STARLINK-4701,1 53727U 22107AD  22343.52839400  .00008896  00000-0  57640-3 0  9997,2 53727  53.2166 178.9896 0002144 317.5307  42.5519 15.08834339 15482,6917.898,95.438,541.246,538.279,0.0
53727.0,STARLINK-4701,PAYLOAD,2022-12-09 19:02:28,15.08825345,0.0001968,53.2169,177.7986,45.1103,315.0048,-8.549299999999999e-05,-1.648e-05,0.0,0 STARLINK-4701,1 53727U 22107AD  22343.79338701 -.00001648  00000-0 -85493-4 0  9992,2 53727  53.2169 177.7986 0001968  45.1103 315.0048 15.08825345 14923,6917.925,95.438,541.1519999999998,538.429,0.0
53727.0,STARLINK-4701,PAYLOAD,2022-12-09 20:37:51,15.08824102,0.0002127,53.2174,177.502,45.0735,315.0429,-9.2643e-05,-1.762e-05,0.0,0 STARLINK-4701,1 53727U 22107AD  22343.85962888 -.00001762  00000-0 -92643-4 0  9990,2 53727  53.2174 177.5020 0002127  45.0735 315.0429 15.08824102 15535,6917.929,95.439,541.265,538.323,0.0
53727.0,STARLINK-4701,PAYLOAD,2022-12-10 18:53:15,15.08834197,0.0002367,53.2186,173.3376,46.577,313.5418,-8.6289e-05,-1.661e-05,0.0,0 STARLINK-4701,1 53727U 22107AD  22344.78698873 -.00001661  00000-0 -86289-4 0  9990,2 53727  53.2186 173.3376 0002367  46.5770 313.5418 15.08834197 15072,6917.898,95.438,541.401,538.126,0.0
53727.0,STARLINK-4701,PAYLOAD,2022-12-10 22:04:02,15.08834243,0.0002361,53.2185,172.7429,42.383,317.7344,-5.180600000000001e-05,-1.113e-05,0.0,0 STARLINK-4701,1 53727U 22107AD  22344.91946791 -.00001113  00000-0 -51806-4 0  9999,2 53727  53.2185 172.7429 0002361  42.3830 317.7344 15.08834243 15692,6917.898,95.438,541.396,538.13,0.0
53727.0,STARLINK-4701,PAYLOAD,2022-12-11 18:44:03,15.08830404,0.0002203,53.2185,168.877,47.3149,312.8028,7.1692e-05,8.53e-06,0.0,0 STARLINK-4701,1 53727U 22107AD  22345.78059074  .00000853  00000-0  71692-4 0  9997,2 53727  53.2185 168.8770 0002203  47.3149 312.8028 15.08830404 15825,6917.91,95.438,541.299,538.251,0.0
53727.0,STARLINK-4701,PAYLOAD,2022-12-11 21:54:49,15.08832207,0.0002193,53.2185,168.2821,48.1329,311.985,8.188e-05,1.015e-05,0.0,0 STARLINK-4701,1 53727U 22107AD  22345.91306995  .00001015  00000-0  81880-4 0  9990,2 53727  53.2185 168.2821 0002193  48.1329 311.9850 15.08832207 15245,6917.904,95.438,541.286,538.252,0.0
53727.0,STARLINK-4701,PAYLOAD,2022-12-12 21:45:35,15.08840947,0.0002188,53.2182,163.8211,48.9034,311.2147,7.2282e-05,8.62e-06,0.0,0 STARLINK-4701,1 53727U 22107AD  22346.90666637  .00000862  00000-0  72282-4 0  9997,2 53727  53.2182 163.8211 0002188  48.9034 311.2147 15.08840947 15399,6917.877,95.437,541.256,538.229,0.0
53727.0,STARLINK-4701,PAYLOAD,2022-12-13 12:04:03,15.08847967,0.0002183,53.2178,161.1446,47.7144,312.4033,6.0831e-05,6.8e-06,0.0,0 STARLINK-4701,1 53727U 22107AD  22347.50282079  .00000680  00000-0  60831-4 0  9993,2 53727  53.2178 161.1446 0002183  47.7144 312.4033 15.08847967 16082,6917.856,95.437,541.231,538.211,0.0
53727.0,STARLINK-4701,PAYLOAD,2022-12-13 18:25:35,15.088501,0.0002107,53.218,159.9549,50.3711,309.7467,7.3948e-05,8.89e-06,0.0,0 STARLINK-4701,1 53727U 22107AD  22347.76777704  .00000889  00000-0  73948-4 0  9999,2 53727  53.2180 159.9549 0002107  50.3711 309.7467 15.08850100 15521,6917.85,95.437,541.172,538.257,0.0
53727.0,STARLINK-4701,PAYLOAD,2022-12-14 11:54:51,15.08843043,0.0002259,53.2171,156.684,50.5898,309.5294,-6.9807e-05,-1.399e-05,0.0,0 STARLINK-4701,1 53727U 22107AD  22348.49642609 -.00001399  00000-0 -69807-4 0  9993,2 53727  53.2171 156.6840 0002259  50.5898 309.5294 15.08843043 16238,6917.871,95.437,541.299,538.173,0.0
53727.0,STARLINK-4701,PAYLOAD,2022-12-14 18:16:23,15.08845964,0.0002221,53.2171,155.4948,47.4489,312.6690000000001,-3.9311e-05,-9.14e-06,0.0,0 STARLINK-4701,1 53727U 22107AD  22348.76138219 -.00000914  00000-0 -39311-4 0  9999,2 53727  53.2171 155.4948 0002221  47.4489 312.6690 15.08845964 16277,6917.861999999999,95.437,541.264,538.191,0.0
